LEMUR-2-ANDIS           
1 42838U 17042P   26068.55941107  .00023598  00000+0  79875-3 0  9998
2 42838  97.3659 249.7950 0009101   4.3248 355.8070 15.30557934473198
STARLINK-32108          
1 59682U 24086A   26068.05937325  .00000536  00000+0  29013-4 0  9998
2 59682  43.0039  67.0607 0001057 271.5921  88.4809 15.27573212103968
